[{"OBJECT_NAME":"EUTELSAT 139 WEST A","OBJECT_ID":"2004-008A","EPOCH":"2026-03-07T10:34:38.671104","MEAN_MOTION":1.00832748,"ECCENTRICITY":0.00015641,"INCLINATION":5.5704,"RA_OF_ASC_NODE":73.2273,"ARG_OF_PERICENTER":28.9958,"MEAN_ANOMALY":190.3483,"EPHEMERIS_TYPE":0,"CLASSIFICATION_TYPE":"U","NORAD_CAT_ID":28187,"ELEMENT_SET_NO":999,"REV_AT_EPOCH":8033,"BSTAR":0,"MEAN_MOTION_DOT":-1.4e-6,"MEAN_MOTION_DDOT":0},{"OBJECT_NAME":"EUTELSAT 174A","OBJECT_ID":"2005-052A","EPOCH":"2026-03-07T08:10:38.623584","MEAN_MOTION":1.00274673,"ECCENTRICITY":0.0006286,"INCLINATION":3.9605,"RA_OF_ASC_NODE":77.7904,"ARG_OF_PERICENTER":273.7033,"MEAN_ANOMALY":110.212,"EPHEMERIS_TYPE":0,"CLASSIFICATION_TYPE":"U","NORAD_CAT_ID":28924,"ELEMENT_SET_NO":999,"REV_AT_EPOCH":5131,"BSTAR":0,"MEAN_MOTION_DOT":8.0e-8,"MEAN_MOTION_DDOT":0},{"OBJECT_NAME":"EUTELSAT 33F","OBJECT_ID":"2006-032A","EPOCH":"2026-03-07T05:58:38.618112","MEAN_MOTION":1.00270794,"ECCENTRICITY":0.0003511,"INCLINATION":1.3981,"RA_OF_ASC_NODE":83.4402,"ARG_OF_PERICENTER":265.0234,"MEAN_ANOMALY":299.2286,"EPHEMERIS_TYPE":0,"CLASSIFICATION_TYPE":"U","NORAD_CAT_ID":29270,"ELEMENT_SET_NO":999,"REV_AT_EPOCH":4628,"BSTAR":0,"MEAN_MOTION_DOT":1.54e-6,"MEAN_MOTION_DDOT":0},{"OBJECT_NAME":"EUTELSAT HOTBIRD 13C","OBJECT_ID":"2008-065A","EPOCH":"2026-03-07T06:50:01.213728","MEAN_MOTION":1.00273637,"ECCENTRICITY":0.00038252,"INCLINATION":2.6883,"RA_OF_ASC_NODE":80.4123,"ARG_OF_PERICENTER":276.3278,"MEAN_ANOMALY":220.4542,"EPHEMERIS_TYPE":0,"CLASSIFICATION_TYPE":"U","NORAD_CAT_ID":33459,"ELEMENT_SET_NO":999,"REV_AT_EPOCH":4632,"BSTAR":0,"MEAN_MOTION_DOT":-2.84e-6,"MEAN_MOTION_DDOT":0},{"OBJECT_NAME":"EUTELSAT 36B","OBJECT_ID":"2009-065A","EPOCH":"2026-03-07T07:58:38.502912","MEAN_MOTION":1.00273223,"ECCENTRICITY":0.00058649,"INCLINATION":0.234,"RA_OF_ASC_NODE":77.7654,"ARG_OF_PERICENTER":272.8766,"MEAN_ANOMALY":344.5304,"EPHEMERIS_TYPE":0,"CLASSIFICATION_TYPE":"U","NORAD_CAT_ID":36101,"ELEMENT_SET_NO":999,"REV_AT_EPOCH":5968,"BSTAR":0,"MEAN_MOTION_DOT":1.1e-6,"MEAN_MOTION_DDOT":0},{"OBJECT_NAME":"EUTELSAT KA-SAT 9A","OBJECT_ID":"2010-069A","EPOCH":"2026-03-07T07:06:59.587200","MEAN_MOTION":1.00270618,"ECCENTRICITY":0.00025834,"INCLINATION":0.0576,"RA_OF_ASC_NODE":356.5099,"ARG_OF_PERICENTER":152.1172,"MEAN_ANOMALY":132.1269,"EPHEMERIS_TYPE":0,"CLASSIFICATION_TYPE":"U","NORAD_CAT_ID":37258,"ELEMENT_SET_NO":999,"REV_AT_EPOCH":4298,"BSTAR":0,"MEAN_MOTION_DOT":5.9e-7,"MEAN_MOTION_DDOT":0},{"OBJECT_NAME":"EUTELSAT 7 WEST A","OBJECT_ID":"2011-051A","EPOCH":"2026-03-07T10:18:38.761056","MEAN_MOTION":1.00272342,"ECCENTRICITY":8.638e-5,"INCLINATION":0.0706,"RA_OF_ASC_NODE":14.9017,"ARG_OF_PERICENTER":219.5227,"MEAN_ANOMALY":78.0484,"EPHEMERIS_TYPE":0,"CLASSIFICATION_TYPE":"U","NORAD_CAT_ID":37816,"ELEMENT_SET_NO":999,"REV_AT_EPOCH":5285,"BSTAR":0,"MEAN_MOTION_DOT":-6.2e-7,"MEAN_MOTION_DDOT":0},{"OBJECT_NAME":"EUTELSAT 16A","OBJECT_ID":"2011-057A","EPOCH":"2026-03-07T06:14:38.765760","MEAN_MOTION":1.00272698,"ECCENTRICITY":0.000548,"INCLINATION":0.0559,"RA_OF_ASC_NODE":359.886,"ARG_OF_PERICENTER":348.248,"MEAN_ANOMALY":286.4813,"EPHEMERIS_TYPE":0,"CLASSIFICATION_TYPE":"U","NORAD_CAT_ID":37836,"ELEMENT_SET_NO":999,"REV_AT_EPOCH":631,"BSTAR":0,"MEAN_MOTION_DOT":1.02e-6,"MEAN_MOTION_DDOT":0},{"OBJECT_NAME":"EUTELSAT 21B","OBJECT_ID":"2012-062B","EPOCH":"2026-03-07T07:10:21.764064","MEAN_MOTION":1.00272869,"ECCENTRICITY":0.00028473,"INCLINATION":0.0691,"RA_OF_ASC_NODE":4.0627,"ARG_OF_PERICENTER":339.6408,"MEAN_ANOMALY":310.4747,"EPHEMERIS_TYPE":0,"CLASSIFICATION_TYPE":"U","NORAD_CAT_ID":38992,"ELEMENT_SET_NO":999,"REV_AT_EPOCH":4880,"BSTAR":0,"MEAN_MOTION_DOT":1.28e-6,"MEAN_MOTION_DDOT":0},{"OBJECT_NAME":"EUTELSAT 70B","OBJECT_ID":"2012-069A","EPOCH":"2026-03-07T15:22:10.546176","MEAN_MOTION":1.00271059,"ECCENTRICITY":0.00021136,"INCLINATION":0.0651,"RA_OF_ASC_NODE":345.4947,"ARG_OF_PERICENTER":341.0405,"MEAN_ANOMALY":139.8438,"EPHEMERIS_TYPE":0,"CLASSIFICATION_TYPE":"U","NORAD_CAT_ID":39020,"ELEMENT_SET_NO":999,"REV_AT_EPOCH":4849,"BSTAR":0,"MEAN_MOTION_DOT":-4.4e-7,"MEAN_MOTION_DDOT":0},{"OBJECT_NAME":"EUTELSAT 117 WEST A","OBJECT_ID":"2013-012A","EPOCH":"2026-03-07T08:34:38.622144","MEAN_MOTION":1.00271642,"ECCENTRICITY":0.00029078,"INCLINATION":0.0477,"RA_OF_ASC_NODE":297.2821,"ARG_OF_PERICENTER":54.4451,"MEAN_ANOMALY":185.1802,"EPHEMERIS_TYPE":0,"CLASSIFICATION_TYPE":"U","NORAD_CAT_ID":39122,"ELEMENT_SET_NO":999,"REV_AT_EPOCH":4741,"BSTAR":0,"MEAN_MOTION_DOT":-1.5e-7,"MEAN_MOTION_DDOT":0},{"OBJECT_NAME":"EUTELSAT 7B","OBJECT_ID":"2013-022A","EPOCH":"2026-03-07T06:22:38.729856","MEAN_MOTION":1.00273436,"ECCENTRICITY":0.0006339,"INCLINATION":0.0682,"RA_OF_ASC_NODE":357.7976,"ARG_OF_PERICENTER":359.0313,"MEAN_ANOMALY":270.7911,"EPHEMERIS_TYPE":0,"CLASSIFICATION_TYPE":"U","NORAD_CAT_ID":39163,"ELEMENT_SET_NO":999,"REV_AT_EPOCH":4692,"BSTAR":0,"MEAN_MOTION_DOT":4.6e-7,"MEAN_MOTION_DDOT":0},{"OBJECT_NAME":"EXPRESS-AT1","OBJECT_ID":"2014-010A","EPOCH":"2026-03-07T14:49:53.981760","MEAN_MOTION":1.00272827,"ECCENTRICITY":2.147e-5,"INCLINATION":0.0154,"RA_OF_ASC_NODE":207.8946,"ARG_OF_PERICENTER":77.3389,"MEAN_ANOMALY":158.5463,"EPHEMERIS_TYPE":0,"CLASSIFICATION_TYPE":"U","NORAD_CAT_ID":39612,"ELEMENT_SET_NO":999,"REV_AT_EPOCH":4379,"BSTAR":0,"MEAN_MOTION_DOT":7.7e-7,"MEAN_MOTION_DDOT":0},{"OBJECT_NAME":"EXPRESS-AT2","OBJECT_ID":"2014-010B","EPOCH":"2026-03-06T23:10:52.738752","MEAN_MOTION":1.00269471,"ECCENTRICITY":0.00010486,"INCLINATION":0.0187,"RA_OF_ASC_NODE":160.6406,"ARG_OF_PERICENTER":122.9405,"MEAN_ANOMALY":8.6817,"EPHEMERIS_TYPE":0,"CLASSIFICATION_TYPE":"U","NORAD_CAT_ID":39613,"ELEMENT_SET_NO":999,"REV_AT_EPOCH":4347,"BSTAR":0,"MEAN_MOTION_DOT":0,"MEAN_MOTION_DDOT":0},{"OBJECT_NAME":"EUTELSAT 3B","OBJECT_ID":"2014-030A","EPOCH":"2026-03-07T06:22:38.729856","MEAN_MOTION":1.00270944,"ECCENTRICITY":7.75e-5,"INCLINATION":0.0627,"RA_OF_ASC_NODE":342.183,"ARG_OF_PERICENTER":300.6753,"MEAN_ANOMALY":340.8633,"EPHEMERIS_TYPE":0,"CLASSIFICATION_TYPE":"U","NORAD_CAT_ID":39773,"ELEMENT_SET_NO":999,"REV_AT_EPOCH":4304,"BSTAR":0,"MEAN_MOTION_DOT":1.7e-7,"MEAN_MOTION_DDOT":0},{"OBJECT_NAME":"EUTELSAT 115 WEST B","OBJECT_ID":"2015-010B","EPOCH":"2026-03-07T11:10:38.474112","MEAN_MOTION":1.0027151,"ECCENTRICITY":2.129e-5,"INCLINATION":0.0163,"RA_OF_ASC_NODE":307.2438,"ARG_OF_PERICENTER":318.0716,"MEAN_ANOMALY":312.6148,"EPHEMERIS_TYPE":0,"CLASSIFICATION_TYPE":"U","NORAD_CAT_ID":40425,"ELEMENT_SET_NO":999,"REV_AT_EPOCH":4037,"BSTAR":0,"MEAN_MOTION_DOT":-2.6e-7,"MEAN_MOTION_DDOT":0},{"OBJECT_NAME":"EUTELSAT 8 WEST B","OBJECT_ID":"2015-039B","EPOCH":"2026-03-07T10:18:38.761056","MEAN_MOTION":1.00271817,"ECCENTRICITY":0.00038153,"INCLINATION":0.0677,"RA_OF_ASC_NODE":3.837,"ARG_OF_PERICENTER":342.2845,"MEAN_ANOMALY":325.6691,"EPHEMERIS_TYPE":0,"CLASSIFICATION_TYPE":"U","NORAD_CAT_ID":40875,"ELEMENT_SET_NO":999,"REV_AT_EPOCH":3863,"BSTAR":0,"MEAN_MOTION_DOT":-6.7e-7,"MEAN_MOTION_DDOT":0}]
