EUTELSAT 139 WEST A     
1 28187U 04008A   26066.44072536 -.00000140  00000+0  00000+0 0  9993
2 28187   5.5704  73.2273 0001564  28.9958 190.3483  1.00832748 80335
EUTELSAT 174A           
1 28924U 05052A   26066.34072481  .00000008  00000+0  00000+0 0  9992
2 28924   3.9605  77.7904 0006286 273.7033 110.2120  1.00274673 51318
EUTELSAT 33F            
1 29270U 06032A   26066.24905808  .00000154  00000+0  00000+0 0  9995
2 29270   1.3981  83.4402 0003511 265.0234 299.2286  1.00270794 46285
EUTELSAT HOTBIRD 13C    
1 33459U 08065A   26066.28473627 -.00000284  00000+0  00000+0 0  9995
2 33459   2.6883  80.4123 0003825 276.3278 220.4542  1.00273637 46327
EUTELSAT 36B            
1 36101U 09065A   26066.33239008  .00000110  00000+0  00000+0 0  9999
2 36101   0.2340  77.7654 0005864 272.8766 344.5304  1.00273223 59680
EUTELSAT KA-SAT 9A      
1 37258U 10069A   26066.29652300  .00000059  00000+0  00000+0 0  9990
2 37258   0.0576 356.5099 0002583 152.1172 132.1269  1.00270618 42981
EUTELSAT 7 WEST A       
1 37816U 11051A   26066.42961529 -.00000062  00000+0  00000+0 0  9998
2 37816   0.0706  14.9017 0000863 219.5227  78.0484  1.00272342 52859
EUTELSAT 16A            
1 37836U 11057A   26066.26017090  .00000102  00000+0  00000+0 0  9997
2 37836   0.0559 359.8860 0005480 348.2480 286.4813  1.00272698  6310
EUTELSAT 21B            
1 38992U 12062B   26066.29886301  .00000128  00000+0  00000+0 0  9998
2 38992   0.0691   4.0627 0002847 339.6408 310.4747  1.00272869 48803
EUTELSAT 70B            
1 39020U 12069A   26066.64039984 -.00000044  00000+0  00000+0 0  9992
2 39020   0.0651 345.4947 0002113 341.0405 139.8438  1.00271059 48494
EUTELSAT 117 WEST A     
1 39122U 13012A   26066.35739146 -.00000015  00000+0  00000+0 0  9997
2 39122   0.0477 297.2821 0002907  54.4451 185.1802  1.00271642 47413
EUTELSAT 7B             
1 39163U 13022A   26066.26572604  .00000046  00000+0  00000+0 0  9990
2 39163   0.0682 357.7976 0006339 359.0313 270.7911  1.00273436 46923
EXPRESS-AT1             
1 39612U 14010A   26066.61798590  .00000077  00000+0  00000+0 0  9994
2 39612   0.0154 207.8946 0000214  77.3389 158.5463  1.00272827 43797
EXPRESS-AT2             
1 39613U 14010B   26065.96588818  .00000000  00000+0  00000+0 0  9998
2 39613   0.0187 160.6406 0001048 122.9405   8.6817  1.00269471 43477
EUTELSAT 3B             
1 39773U 14030A   26066.26572604  .00000017  00000+0  00000+0 0  9995
2 39773   0.0627 342.1830 0000775 300.6753 340.8633  1.00270944 43045
EUTELSAT 115 WEST B     
1 40425U 15010B   26066.46572308 -.00000026  00000+0  00000+0 0  9994
2 40425   0.0163 307.2438 0000212 318.0716 312.6148  1.00271510 40371
EUTELSAT 8 WEST B       
1 40875U 15039B   26066.42961529 -.00000067  00000+0  00000+0 0  9992
2 40875   0.0677   3.8370 0003815 342.2845 325.6691  1.00271817 38631
